[
  {
    "school": "國小",
    "school_name": "國立北教大實小",
    "postal_code": "106",
    "address": "臺北市大安區龍淵里和平東路2段94號",
    "telephone": "02-2735-6186",
    "lat": "25.0250425",
    "lon": "121.540946"
  },
  {
    "school": "國小",
    "school_name": "國立政大實小",
    "postal_code": "116",
    "address": "臺北市文山區指南路三段12號",
    "telephone": "02-2939-3610",
    "lat": "24.9848367",
    "lon": "121.57996"
  },
  {
    "school": "國小",
    "school_name": "松山國小",
    "postal_code": "105",
    "address": "臺北市松山區八德路四段746號",
    "telephone": "02-2767-2907",
    "lat": "25.0500085",
    "lon": "121.5774764"
  },
  {
    "school": "國小",
    "school_name": "西松國小",
    "postal_code": "105",
    "address": "臺北市松山區東光里三民路5號",
    "telephone": "02-2760-9221",
    "lat": "25.0522116",
    "lon": "121.5636714"
  },
  {
    "school": "國小",
    "school_name": "敦化國小",
    "postal_code": "105",
    "address": "臺北市松山區中正里敦化北路2號",
    "telephone": "02-2741-4065",
    "lat": "25.049216",
    "lon": "121.548605"
  },
  {
    "school": "國小",
    "school_name": "民生國小",
    "postal_code": "105",
    "address": "臺北市松山區敦化北路199巷18號",
    "telephone": "02-2712-2452",
    "lat": "25.0565153",
    "lon": "121.5521795"
  },
  {
    "school": "國小",
    "school_name": "民權國小",
    "postal_code": "105",
    "address": "臺北市松山區民權東路四段200號",
    "telephone": "02-2765-2327",
    "lat": "25.0625251",
    "lon": "121.562292"
  },
  {
    "school": "國小",
    "school_name": "民族國小",
    "postal_code": "105",
    "address": "臺北市松山區民生東路4段97巷7號",
    "telephone": "02-2712-4872",
    "lat": "25.0594726",
    "lon": "121.5518154"
  },
  {
    "school": "國小",
    "school_name": "三民國小",
    "postal_code": "105",
    "address": "臺北市松山區莊敬里民權東路五段1號",
    "telephone": "02-2764-6080",
    "lat": "25.0631782",
    "lon": "121.5642857"
  },
  {
    "school": "國小",
    "school_name": "健康國小",
    "postal_code": "105",
    "address": "臺北市松山區延壽街168號",
    "telephone": "02-2528-2814",
    "lat": "25.0566674",
    "lon": "121.5627846"
  },
  {
    "school": "國小",
    "school_name": "興雅國小",
    "postal_code": "110",
    "address": "臺北市信義區雅祥里基隆路1段83巷9號",
    "telephone": "02-2761-8156",
    "lat": "25.046751",
    "lon": "121.5700216"
  },
  {
    "school": "國小",
    "school_name": "永春國小",
    "postal_code": "110",
    "address": "臺北市信義區永春里松山路225巷48號",
    "telephone": "02-2764-1314",
    "lat": "25.0446527",
    "lon": "121.5790792"
  },
  {
    "school": "國小",
    "school_name": "光復國小",
    "postal_code": "110",
    "address": "臺北市信義區光復南路271號",
    "telephone": "02-2758-5076",
    "lat": "25.0402704",
    "lon": "121.5578527"
  },
  {
    "school": "國小",
    "school_name": "三興國小",
    "postal_code": "110",
    "address": "臺北市信義區景聯里基隆路2段99號",
    "telephone": "02-2738-5488",
    "lat": "25.029467",
    "lon": "121.558267"
  },
  {
    "school": "國小",
    "school_name": "信義國小",
    "postal_code": "110",
    "address": "臺北市信義區松勤街60號",
    "telephone": "02-2720-4005",
    "lat": "25.0318599",
    "lon": "121.563206"
  },
  {
    "school": "國小",
    "school_name": "吳興國小",
    "postal_code": "110",
    "address": "臺北市信義區松仁路226號",
    "telephone": "02-2720-0226",
    "lat": "25.0257433",
    "lon": "121.568716"
  },
  {
    "school": "國小",
    "school_name": "福德國小",
    "postal_code": "110",
    "address": "臺北市信義區中行里褔德街253號",
    "telephone": "02-2727-7992",
    "lat": "25.0388994",
    "lon": "121.5865035"
  },
  {
    "school": "國小",
    "school_name": "永吉國小",
    "postal_code": "110",
    "address": "臺北市信義區永春里松山路287巷5號",
    "telephone": "02-8785-8111",
    "lat": "25.0430088",
    "lon": "121.5798853"
  },
  {
    "school": "國小",
    "school_name": "博愛國小",
    "postal_code": "110",
    "address": "臺北市信義區松仁路22鄰95巷20號",
    "telephone": "02-2345-0616",
    "lat": "25.0394125",
    "lon": "121.5681958"
  },
  {
    "school": "國小",
    "school_name": "龍安國小",
    "postal_code": "106",
    "address": "臺北市大安區龍門里新生南路3段33號",
    "telephone": "02-2363-2077",
    "lat": "25.0239215",
    "lon": "121.5348854"
  },
  {
    "school": "國小",
    "school_name": "大安國小",
    "postal_code": "106",
    "address": "臺北市大安區芳和里臥龍街129號",
    "telephone": "02-2732-2332",
    "lat": "25.0200093",
    "lon": "121.549095"
  },
  {
    "school": "國小",
    "school_name": "幸安國小",
    "postal_code": "106",
    "address": "臺北市大安區民炤里仁愛路3段22號",
    "telephone": "02-2707-4191",
    "lat": "25.037684",
    "lon": "121.5349702"
  },
  {
    "school": "國小",
    "school_name": "建安國小",
    "postal_code": "106",
    "address": "臺北市大安區龍雲里大安路2段99號",
    "telephone": "02-2707-7119",
    "lat": "25.029377",
    "lon": "121.546245"
  },
  {
    "school": "國小",
    "school_name": "仁愛國小",
    "postal_code": "106",
    "address": "臺北市大安區敦安里安和路1段60號",
    "telephone": "02-2709-5010",
    "lat": "25.0357732",
    "lon": "121.55235"
  },
  {
    "school": "國小",
    "school_name": "金華國小",
    "postal_code": "106",
    "address": "臺北市大安區永康里愛國東路79巷11號",
    "telephone": "02-2391-7402",
    "lat": "25.0322754",
    "lon": "121.527675"
  },
  {
    "school": "國小",
    "school_name": "古亭國小",
    "postal_code": "106",
    "address": "臺北市大安區古風里羅斯福路3段201號",
    "telephone": "02-2363-9795",
    "lat": "25.0205827",
    "lon": "121.5287775"
  },
  {
    "school": "國小",
    "school_name": "銘傳國小",
    "postal_code": "106",
    "address": "臺北市大安區農場里羅斯褔路四段21號",
    "telephone": "02-2363-9815",
    "lat": "25.0261583",
    "lon": "121.5427093"
  },
  {
    "school": "國小",
    "school_name": "公館國小",
    "postal_code": "106",
    "address": "臺北市大安區基隆路4段41巷68弄2號",
    "telephone": "02-2735-1734",
    "lat": "25.0124078",
    "lon": "121.5428079"
  },
  {
    "school": "國小",
    "school_name": "新生國小",
    "postal_code": "106",
    "address": "臺北市大安區新生南路二段36號",
    "telephone": "02-2391-3122",
    "lat": "25.0298199",
    "lon": "121.53362"
  },
  {
    "school": "國小",
    "school_name": "中山國小",
    "postal_code": "104",
    "address": "臺北市中山區恆安里民權東路1段69號",
    "telephone": "02-2591-4085",
    "lat": "25.063613",
    "lon": "121.526363"
  },
  {
    "school": "國小",
    "school_name": "中正國小",
    "postal_code": "104",
    "address": "臺北市中山區力行里龍江路62號",
    "telephone": "02-2507-0932",
    "lat": "25.05049",
    "lon": "121.5400725"
  },
  {
    "school": "國小",
    "school_name": "長安國小",
    "postal_code": "104",
    "address": "臺北市中山區興亞里吉林路15號",
    "telephone": "02-2561-7600",
    "lat": "25.0497694",
    "lon": "121.5301634"
  },
  {
    "school": "國小",
    "school_name": "長春國小",
    "postal_code": "104",
    "address": "臺北市中山區中央里長春路165號",
    "telephone": "02-2502-4366",
    "lat": "25.0549363",
    "lon": "121.5339007"
  },
  {
    "school": "國小",
    "school_name": "大直國小",
    "postal_code": "104",
    "address": "臺北市中山區大直里大直街2號",
    "telephone": "02-2533-3953",
    "lat": "25.0804934",
    "lon": "121.5460971"
  },
  {
    "school": "國小",
    "school_name": "大佳國小",
    "postal_code": "104",
    "address": "臺北市中山區大佳里6鄰濱江街107號",
    "telephone": "02-2503-5816",
    "lat": "25.073294",
    "lon": "121.5363674"
  },
  {
    "school": "國小",
    "school_name": "五常國小",
    "postal_code": "104",
    "address": "臺北市中山區下埤里五常街16號",
    "telephone": "02-2502-3416",
    "lat": "25.0641393",
    "lon": "121.5422023"
  },
  {
    "school": "國小",
    "school_name": "吉林國小",
    "postal_code": "104",
    "address": "臺北市中山區中原里長春路116號",
    "telephone": "02-2521-9196",
    "lat": "25.054721",
    "lon": "121.5296301"
  },
  {
    "school": "國小",
    "school_name": "懷生國小",
    "postal_code": "104",
    "address": "臺北市中山區埤頭里安東街16巷2號",
    "telephone": "02-2771-0846",
    "lat": "25.0452404",
    "lon": "121.5417844"
  },
  {
    "school": "國小",
    "school_name": "永安國小",
    "postal_code": "104",
    "address": "臺北市中山區明水路397巷19弄1號",
    "telephone": "02-2533-5672",
    "lat": "25.0787761",
    "lon": "121.5494063"
  },
  {
    "school": "國小",
    "school_name": "濱江國小",
    "postal_code": "104",
    "address": "臺北市中山區樂群二路266巷99號",
    "telephone": "02-8502-1571",
    "lat": "25.0780014",
    "lon": "121.5616369"
  },
  {
    "school": "國小",
    "school_name": "螢橋國小",
    "postal_code": "100",
    "address": "臺北市中正區螢雪里詔安街29號",
    "telephone": "02-2305-4620",
    "lat": "25.0250745",
    "lon": "121.514332"
  },
  {
    "school": "國小",
    "school_name": "河堤國小",
    "postal_code": "100",
    "address": "臺北市中正區汀州路二段180號",
    "telephone": "02-2367-7144",
    "lat": "25.0232298",
    "lon": "121.522699"
  },
  {
    "school": "國小",
    "school_name": "忠義國小",
    "postal_code": "100",
    "address": "臺北市中正區中華路二段307巷17號",
    "telephone": "02-2303-8752",
    "lat": "25.02963",
    "lon": "121.5063464"
  },
  {
    "school": "國小",
    "school_name": "國語實小",
    "postal_code": "100",
    "address": "臺北市中正區龍光里南海路58號",
    "telephone": "02-2303-3555",
    "lat": "25.0307489",
    "lon": "121.5105903"
  },
  {
    "school": "國小",
    "school_name": "南門國小",
    "postal_code": "100",
    "address": "臺北市中正區南門里廣州街6號",
    "telephone": "02-2371-5052",
    "lat": "25.0352657",
    "lon": "121.5090687"
  },
  {
    "school": "國小",
    "school_name": "東門國小",
    "postal_code": "100",
    "address": "臺北市中正區東門里仁愛路一段2-4號",
    "telephone": "02-2341-2822",
    "lat": "25.03862",
    "lon": "121.520868"
  },
  {
    "school": "國小",
    "school_name": "忠孝國小",
    "postal_code": "100",
    "address": "臺北市中正區梅花里忠孝東路2段101號",
    "telephone": "02-2391-8170",
    "lat": "25.04293",
    "lon": "121.531552"
  },
  {
    "school": "國小",
    "school_name": "市大附小",
    "postal_code": "100",
    "address": "臺北市中正區黎明里公園路29號",
    "telephone": "02-2311-0395",
    "lat": "25.0360732",
    "lon": "121.5152463"
  },
  {
    "school": "國小",
    "school_name": "蓬萊國小",
    "postal_code": "103",
    "address": "臺北市大同區星明里寧夏路35號",
    "telephone": "02-2556-9835",
    "lat": "25.0563873",
    "lon": "121.5157097"
  },
  {
    "school": "國小",
    "school_name": "日新國小",
    "postal_code": "103",
    "address": "臺北市大同區星明里太原路151號",
    "telephone": "02-2558-4819",
    "lat": "25.054494",
    "lon": "121.5165179"
  },
  {
    "school": "國小",
    "school_name": "太平國小",
    "postal_code": "103",
    "address": "臺北市大同區南芳里延平北路2段239號",
    "telephone": "02-2553-2229",
    "lat": "25.061412",
    "lon": "121.511472"
  },
  {
    "school": "國小",
    "school_name": "永樂國小",
    "postal_code": "103",
    "address": "臺北市大同區南芳里延平北路2段266號",
    "telephone": "02-2553-4882",
    "lat": "25.061261",
    "lon": "121.511118"
  },
  {
    "school": "國小",
    "school_name": "雙蓮國小",
    "postal_code": "103",
    "address": "臺北市大同區民權里錦西街51號",
    "telephone": "02-2557-0309",
    "lat": "25.060161",
    "lon": "121.5166898"
  },
  {
    "school": "國小",
    "school_name": "大同國小",
    "postal_code": "103",
    "address": "臺北市大同區蓬萊里大龍街51號",
    "telephone": "02-2596-5407",
    "lat": "25.0652808",
    "lon": "121.5161749"
  },
  {
    "school": "國小",
    "school_name": "大龍國小",
    "postal_code": "103",
    "address": "臺北市大同區保安里哈密街47號",
    "telephone": "02-2594-2635",
    "lat": "25.073409",
    "lon": "121.5166925"
  },
  {
    "school": "國小",
    "school_name": "延平國小",
    "postal_code": "103",
    "address": "臺北市大同區國慶里昌吉街97號",
    "telephone": "02-2594-2439",
    "lat": "25.0660466",
    "lon": "121.5124544"
  },
  {
    "school": "國小",
    "school_name": "大橋國小",
    "postal_code": "103",
    "address": "臺北市大同區隆和里重慶北路3段2號",
    "telephone": "02-2594-4413",
    "lat": "25.064112",
    "lon": "121.512544"
  },
  {
    "school": "國小",
    "school_name": "新和國小",
    "postal_code": "108",
    "address": "臺北市萬華區西藏路125巷31號",
    "telephone": "02-2303-8298",
    "lat": "25.0259828",
    "lon": "121.5033372"
  },
  {
    "school": "國小",
    "school_name": "雙園國小",
    "postal_code": "108",
    "address": "臺北市萬華區雙園里莒光路315號",
    "telephone": "02-2306-1893",
    "lat": "25.0303916",
    "lon": "121.4982608"
  },
  {
    "school": "國小",
    "school_name": "東園國小",
    "postal_code": "108",
    "address": "臺北市萬華區全德里東園街195號",
    "telephone": "02-2303-4803",
    "lat": "25.023163",
    "lon": "121.4978675"
  },
  {
    "school": "國小",
    "school_name": "大理國小",
    "postal_code": "108",
    "address": "臺北市萬華區綠堤里艋舺大道389號",
    "telephone": "02-2306-4311",
    "lat": "25.031305",
    "lon": "121.4939132"
  },
  {
    "school": "國小",
    "school_name": "西園國小",
    "postal_code": "108",
    "address": "臺北市萬華區日善里東園街73巷65號",
    "telephone": "02-2303-0257",
    "lat": "25.0266629",
    "lon": "121.4988835"
  },
  {
    "school": "國小",
    "school_name": "萬大國小",
    "postal_code": "108",
    "address": "臺北市萬華區全德里萬大路346號",
    "telephone": "02-2303-7654",
    "lat": "25.0229842",
    "lon": "121.4993232"
  },
  {
    "school": "國小",
    "school_name": "華江國小",
    "postal_code": "108",
    "address": "臺北市萬華區環河南路2段250巷42弄2號",
    "telephone": "02-2306-4352",
    "lat": "25.0340691",
    "lon": "121.4911815"
  },
  {
    "school": "國小",
    "school_name": "西門國小",
    "postal_code": "108",
    "address": "臺北市萬華區西門里成都路98號",
    "telephone": "02-2311-3519",
    "lat": "25.043172",
    "lon": "121.5035971"
  },
  {
    "school": "國小",
    "school_name": "老松國小",
    "postal_code": "108",
    "address": "臺北市萬華區福音里桂林路64號",
    "telephone": "02-2336-1266",
    "lat": "25.038046",
    "lon": "121.502725"
  },
  {
    "school": "國小",
    "school_name": "龍山國小",
    "postal_code": "108",
    "address": "臺北市萬華區青山里和平西路三段235號",
    "telephone": "02-2308-2977",
    "lat": "25.035889",
    "lon": "121.496113"
  },
  {
    "school": "國小",
    "school_name": "福星國小",
    "postal_code": "108",
    "address": "臺北市萬華區福星里中華路一段66號",
    "telephone": "02-2314-4668",
    "lat": "25.0467829",
    "lon": "121.5089051"
  },
  {
    "school": "國小",
    "school_name": "景美國小",
    "postal_code": "116",
    "address": "臺北市文山區景行里景文街108號",
    "telephone": "02-2932-2151",
    "lat": "24.9895266",
    "lon": "121.5407811"
  },
  {
    "school": "國小",
    "school_name": "武功國小",
    "postal_code": "116",
    "address": "臺北市文山區萬祥里興隆路1段68號",
    "telephone": "02-2931-4360",
    "lat": "25.0038887",
    "lon": "121.5404927"
  },
  {
    "school": "國小",
    "school_name": "興德國小",
    "postal_code": "116",
    "address": "臺北市文山區興邦里興隆路2段235號",
    "telephone": "02-2932-9431",
    "lat": "25.0016222",
    "lon": "121.5507703"
  },
  {
    "school": "國小",
    "school_name": "溪口國小",
    "postal_code": "116",
    "address": "臺北市文山區景慶里景福街225號",
    "telephone": "02-2935-0955",
    "lat": "24.99413",
    "lon": "121.5387574"
  },
  {
    "school": "國小",
    "school_name": "興隆國小",
    "postal_code": "116",
    "address": "臺北市文山區興望里福興路2號",
    "telephone": "02-2932-3131",
    "lat": "25.0024355",
    "lon": "121.5518875"
  },
  {
    "school": "國小",
    "school_name": "志清國小",
    "postal_code": "116",
    "address": "臺北市文山區景仁里景福街21巷5號",
    "telephone": "02-2932-3875",
    "lat": "24.9986645",
    "lon": "121.5389076"
  },
  {
    "school": "國小",
    "school_name": "景興國小",
    "postal_code": "116",
    "address": "臺北市文山區興安里景華街150巷21號",
    "telephone": "02-2932-9439",
    "lat": "24.9964339",
    "lon": "121.5482935"
  },
  {
    "school": "國小",
    "school_name": "木柵國小",
    "postal_code": "116",
    "address": "臺北市文山區木柵里木柵路3段191號",
    "telephone": "02-2939-1234",
    "lat": "24.9902695",
    "lon": "121.5701489"
  },
  {
    "school": "國小",
    "school_name": "永建國小",
    "postal_code": "116",
    "address": "臺北市文山區華興里試院路2號",
    "telephone": "02-2236-3855",
    "lat": "24.9875796",
    "lon": "121.5500432"
  },
  {
    "school": "國小",
    "school_name": "實踐國小",
    "postal_code": "116",
    "address": "臺北市文山區樟文里忠順街1段4號",
    "telephone": "02-2936-0725",
    "lat": "24.9837272",
    "lon": "121.5576388"
  },
  {
    "school": "國小",
    "school_name": "博嘉國小",
    "postal_code": "116",
    "address": "臺北市文山區木柵路4段159巷14號之1",
    "telephone": "02-2230-2585",
    "lat": "25.000695",
    "lon": "121.575404"
  },
  {
    "school": "國小",
    "school_name": "指南國小",
    "postal_code": "116",
    "address": "臺北市文山區指南路三段38巷5-2號",
    "telephone": "02-2939-3546",
    "lat": "24.9763942",
    "lon": "121.5836353"
  },
  {
    "school": "國小",
    "school_name": "明道國小",
    "postal_code": "116",
    "address": "臺北市文山區明興里木柵路2段138巷61號",
    "telephone": "02-2939-2821",
    "lat": "24.9873333",
    "lon": "121.5625578"
  },
  {
    "school": "國小",
    "school_name": "萬芳國小",
    "postal_code": "116",
    "address": "臺北市文山區萬芳里萬和街1號",
    "telephone": "02-2230-1232",
    "lat": "25.0013132",
    "lon": "121.5677338"
  },
  {
    "school": "國小",
    "school_name": "力行國小",
    "postal_code": "116",
    "address": "臺北市文山區樟腳里木新路3段155巷7號",
    "telephone": "02-2936-3995",
    "lat": "24.9809691",
    "lon": "121.5611618"
  },
  {
    "school": "國小",
    "school_name": "萬興國小",
    "postal_code": "116",
    "address": "臺北市文山區萬興里秀明路2段114號",
    "telephone": "02-2938-1721",
    "lat": "24.9904294",
    "lon": "121.5765927"
  },
  {
    "school": "國小",
    "school_name": "萬福國小",
    "postal_code": "116",
    "address": "臺北市文山區羅斯福5段170巷32號",
    "telephone": "02-2935-3123",
    "lat": "25.0048928",
    "lon": "121.5367124"
  },
  {
    "school": "國小",
    "school_name": "興華國小",
    "postal_code": "116",
    "address": "臺北市文山區興光里興隆路3段125巷6號",
    "telephone": "02-2239-3070",
    "lat": "24.9988344",
    "lon": "121.5587218"
  },
  {
    "school": "國小",
    "school_name": "辛亥國小",
    "postal_code": "116",
    "address": "臺北市文山區興昌里辛亥路4段103號",
    "telephone": "02-2935-7282",
    "lat": "25.0064295",
    "lon": "121.5592422"
  },
  {
    "school": "國小",
    "school_name": "南港國小",
    "postal_code": "115",
    "address": "臺北市南港區三重里惠民街67號",
    "telephone": "02-2783-4678",
    "lat": "25.057689",
    "lon": "121.6101081"
  },
  {
    "school": "國小",
    "school_name": "舊莊國小",
    "postal_code": "115",
    "address": "臺北市南港區舊莊里舊莊街1段100號",
    "telephone": "02-2782-1418",
    "lat": "25.0402449",
    "lon": "121.619539"
  },
  {
    "school": "國小",
    "school_name": "玉成國小",
    "postal_code": "115",
    "address": "臺北市南港區西新里向陽路31號",
    "telephone": "02-2783-6049",
    "lat": "25.0535818",
    "lon": "121.5947692"
  },
  {
    "school": "國小",
    "school_name": "成德國小",
    "postal_code": "115",
    "address": "臺北市南港區聯成里東新街65號",
    "telephone": "02-2785-1376",
    "lat": "25.0468798",
    "lon": "121.5869084"
  },
  {
    "school": "國小",
    "school_name": "胡適國小",
    "postal_code": "115",
    "address": "臺北市南港區中研里舊莊街1段1號",
    "telephone": "02-2782-4949",
    "lat": "25.0423894",
    "lon": "121.6172346"
  },
  {
    "school": "國小",
    "school_name": "東新國小",
    "postal_code": "115",
    "address": "臺北市南港區東新里興南街62號",
    "telephone": "02-2783-7577",
    "lat": "25.0554594",
    "lon": "121.6022189"
  },
  {
    "school": "國小",
    "school_name": "修德國小",
    "postal_code": "115",
    "address": "臺北市南港區東新街118巷86號",
    "telephone": "02-2788-0500",
    "lat": "25.0455318",
    "lon": "121.5896359"
  },
  {
    "school": "國小",
    "school_name": "內湖國小",
    "postal_code": "114",
    "address": "臺北市內湖區港富里內湖路二段41號",
    "telephone": "02-2799-8085",
    "lat": "25.0791258",
    "lon": "121.5802392"
  },
  {
    "school": "國小",
    "school_name": "碧湖國小",
    "postal_code": "114",
    "address": "臺北市內湖區內湖里金龍路100號",
    "telephone": "02-2790-7161",
    "lat": "25.0853115",
    "lon": "121.5911103"
  },
  {
    "school": "國小",
    "school_name": "潭美國小",
    "postal_code": "114",
    "address": "臺北市內湖區石潭里新明路22號",
    "telephone": "02-2791-7334",
    "lat": "25.0603451",
    "lon": "121.5905901"
  },
  {
    "school": "國小",
    "school_name": "東湖國小",
    "postal_code": "114",
    "address": "臺北市內湖區東湖里東湖路115號",
    "telephone": "02-2633-9984",
    "lat": "25.0691597",
    "lon": "121.6160678"
  },
  {
    "school": "國小",
    "school_name": "西湖國小",
    "postal_code": "114",
    "address": "臺北市內湖區西湖里環山路1段25號",
    "telephone": "02-2797-1267",
    "lat": "25.0838299",
    "lon": "121.5656995"
  },
  {
    "school": "國小",
    "school_name": "康寧國小",
    "postal_code": "114",
    "address": "臺北市內湖區清白里星雲街121號",
    "telephone": "02-2790-1237",
    "lat": "25.080037",
    "lon": "121.5950035"
  },
  {
    "school": "國小",
    "school_name": "明湖國小",
    "postal_code": "114",
    "address": "臺北市內湖區東湖里康寧路3段105號",
    "telephone": "02-2632-3477",
    "lat": "25.0713228",
    "lon": "121.610761"
  },
  {
    "school": "國小",
    "school_name": "麗山國小",
    "postal_code": "114",
    "address": "臺北市內湖區港都里港華街100號",
    "telephone": "02-2657-4158",
    "lat": "25.0836791",
    "lon": "121.5724649"
  },
  {
    "school": "國小",
    "school_name": "新湖國小",
    "postal_code": "114",
    "address": "臺北市內湖區湖興里民權東路6段138號",
    "telephone": "02-2796-3721",
    "lat": "25.068804",
    "lon": "121.5887456"
  },
  {
    "school": "國小",
    "school_name": "文湖國小",
    "postal_code": "114",
    "address": "臺北市內湖區西康里文湖街15號",
    "telephone": "02-2658-3515",
    "lat": "25.085771",
    "lon": "121.5601224"
  },
  {
    "school": "國小",
    "school_name": "大湖國小",
    "postal_code": "114",
    "address": "臺北市內湖區大湖里大湖山莊街170號",
    "telephone": "02-2791-5870",
    "lat": "25.0881206",
    "lon": "121.6004795"
  },
  {
    "school": "國小",
    "school_name": "南湖國小",
    "postal_code": "114",
    "address": "臺北市內湖區葫洲里康寧路3段200號",
    "telephone": "02-2632-1296",
    "lat": "25.0686959",
    "lon": "121.6120147"
  },
  {
    "school": "國小",
    "school_name": "麗湖國小",
    "postal_code": "114",
    "address": "臺北市內湖區金湖路363巷8號",
    "telephone": "02-2634-3888",
    "lat": "25.072992",
    "lon": "121.601146"
  },
  {
    "school": "國小",
    "school_name": "士林國小",
    "postal_code": "111",
    "address": "臺北市士林區福德里大東路165號",
    "telephone": "02-2881-2231",
    "lat": "25.0932987",
    "lon": "121.5248831"
  },
  {
    "school": "國小",
    "school_name": "士東國小",
    "postal_code": "111",
    "address": "臺北市士林區蘭雅里中山北路6段392號",
    "telephone": "02-2871-0064",
    "lat": "25.1129301",
    "lon": "121.526828"
  },
  {
    "school": "國小",
    "school_name": "福林國小",
    "postal_code": "111",
    "address": "臺北市士林區福志里福志路75號",
    "telephone": "02-2831-6293",
    "lat": "25.0986884",
    "lon": "121.5295965"
  },
  {
    "school": "國小",
    "school_name": "陽明山國小",
    "postal_code": "111",
    "address": "臺北市士林區新安里仰德大道3段61號",
    "telephone": "02-2861-6366",
    "lat": "25.1193324",
    "lon": "121.5528168"
  },
  {
    "school": "國小",
    "school_name": "社子國小",
    "postal_code": "111",
    "address": "臺北市士林區永倫里延平北路六段308號",
    "telephone": "02-2812-6195",
    "lat": "25.090006",
    "lon": "121.502691"
  },
  {
    "school": "國小",
    "school_name": "雨聲國小",
    "postal_code": "111",
    "address": "臺北市士林區岩山里至誠路1段62巷70號",
    "telephone": "02-2831-1004",
    "lat": "25.1026617",
    "lon": "121.5352647"
  },
  {
    "school": "國小",
    "school_name": "富安國小",
    "postal_code": "111",
    "address": "臺北市士林區富洲里延平北路8段135號",
    "telephone": "02-2810-3192",
    "lat": "25.105839",
    "lon": "121.482582"
  },
  {
    "school": "國小",
    "school_name": "劍潭國小",
    "postal_code": "111",
    "address": "臺北市士林區明勝里通河街16號",
    "telephone": "02-2885-5491",
    "lat": "25.0799466",
    "lon": "121.5229841"
  },
  {
    "school": "國小",
    "school_name": "溪山國小",
    "postal_code": "111",
    "address": "臺北市士林區溪山里至善路3段199號",
    "telephone": "02-2841-1010",
    "lat": "25.119658",
    "lon": "121.5796"
  },
  {
    "school": "國小",
    "school_name": "平等國小",
    "postal_code": "111",
    "address": "臺北市士林區平等里平菁街101號",
    "telephone": "02-2861-0503",
    "lat": "25.129431",
    "lon": "121.576643"
  },
  {
    "school": "國小",
    "school_name": "百齡國小",
    "postal_code": "111",
    "address": "臺北市士林區福中里福港街205號",
    "telephone": "02-2881-7683",
    "lat": "25.0862066",
    "lon": "121.5178502"
  },
  {
    "school": "國小",
    "school_name": "雙溪國小",
    "postal_code": "111",
    "address": "臺北市士林區翠山里中社路2段66號",
    "telephone": "02-2841-1038",
    "lat": "25.106052",
    "lon": "121.563943"
  },
  {
    "school": "國小",
    "school_name": "葫蘆國小",
    "postal_code": "111",
    "address": "臺北市士林區環河北路3段95號",
    "telephone": "02-2812-9586",
    "lat": "25.0837421",
    "lon": "121.5069631"
  },
  {
    "school": "國小",
    "school_name": "雨農國小",
    "postal_code": "111",
    "address": "臺北市士林區名山里忠義街1號",
    "telephone": "02-2832-9700",
    "lat": "25.105282",
    "lon": "121.52946"
  },
  {
    "school": "國小",
    "school_name": "天母國小",
    "postal_code": "111",
    "address": "臺北市士林區天玉里天玉街12號",
    "telephone": "02-2872-3336",
    "lat": "25.1197914",
    "lon": "121.5275331"
  },
  {
    "school": "國小",
    "school_name": "文昌國小",
    "postal_code": "111",
    "address": "臺北市士林區文林路615巷20號",
    "telephone": "02-2836-5411",
    "lat": "25.099401",
    "lon": "121.521359"
  },
  {
    "school": "國小",
    "school_name": "芝山國小",
    "postal_code": "111",
    "address": "臺北市士林區芝山里德行東路285號",
    "telephone": "02-2831-6115",
    "lat": "25.110293",
    "lon": "121.536413"
  },
  {
    "school": "國小",
    "school_name": "蘭雅國小",
    "postal_code": "111",
    "address": "臺北市士林區蘭興里磺溪街57號",
    "telephone": "02-2836-6052",
    "lat": "25.1084096",
    "lon": "121.5231371"
  },
  {
    "school": "國小",
    "school_name": "三玉國小",
    "postal_code": "111",
    "address": "臺北市士林區三玉里天母東路116號",
    "telephone": "02-2875-1369",
    "lat": "25.117932",
    "lon": "121.53712"
  },
  {
    "school": "國小",
    "school_name": "北投國小",
    "postal_code": "112",
    "address": "臺北市北投區長安里中央北路1段73號",
    "telephone": "02-2891-2052",
    "lat": "25.1342551",
    "lon": "121.5003095"
  },
  {
    "school": "國小",
    "school_name": "逸仙國小",
    "postal_code": "112",
    "address": "臺北市北投區中心里新民路2號",
    "telephone": "02-2891-4537",
    "lat": "25.138367",
    "lon": "121.505155"
  },
  {
    "school": "國小",
    "school_name": "石牌國小",
    "postal_code": "112",
    "address": "臺北市北投區吉利里致遠二路80號",
    "telephone": "02-2822-7484",
    "lat": "25.1156878",
    "lon": "121.5117046"
  },
  {
    "school": "國小",
    "school_name": "關渡國小",
    "postal_code": "112",
    "address": "臺北市北投區一德里中央北路4段581號",
    "telephone": "02-2891-2847",
    "lat": "25.126608",
    "lon": "121.466232"
  },
  {
    "school": "國小",
    "school_name": "湖田國小",
    "postal_code": "112",
    "address": "臺北市北投區湖田里竹子湖路17之2號",
    "telephone": "02-2861-6963",
    "lat": "25.168503",
    "lon": "121.538837"
  },
  {
    "school": "國小",
    "school_name": "清江國小",
    "postal_code": "112",
    "address": "臺北市北投區奇岩里公館路220號",
    "telephone": "02-2891-2764",
    "lat": "25.1269568",
    "lon": "121.5076634"
  },
  {
    "school": "國小",
    "school_name": "泉源國小",
    "postal_code": "112",
    "address": "臺北市北投區泉源里東昇路34號",
    "telephone": "02-2895-1258",
    "lat": "25.149185",
    "lon": "121.524203"
  },
  {
    "school": "國小",
    "school_name": "大屯國小",
    "postal_code": "112",
    "address": "臺北市北投區大屯里復興三路312號",
    "telephone": "02-2891-4353",
    "lat": "25.154895",
    "lon": "121.503983"
  },
  {
    "school": "國小",
    "school_name": "湖山國小",
    "postal_code": "112",
    "address": "臺北市北投區湖山里湖底路11號",
    "telephone": "02-2861-0148",
    "lat": "25.150059",
    "lon": "121.535797"
  },
  {
    "school": "國小",
    "school_name": "桃源國小",
    "postal_code": "112",
    "address": "臺北市北投區中央北路3段40巷45號",
    "telephone": "02-2894-1208",
    "lat": "25.139798",
    "lon": "121.484371"
  },
  {
    "school": "國小",
    "school_name": "文林國小",
    "postal_code": "112",
    "address": "臺北市北投區建民里文林北路155號",
    "telephone": "02-2823-4212",
    "lat": "25.1059048",
    "lon": "121.5147443"
  },
  {
    "school": "國小",
    "school_name": "義方國小",
    "postal_code": "112",
    "address": "臺北市北投區珠海路155號",
    "telephone": "02-2891-7433",
    "lat": "25.141925",
    "lon": "121.509816"
  },
  {
    "school": "國小",
    "school_name": "立農國小",
    "postal_code": "112",
    "address": "臺北市北投區立農里立農街1段250號",
    "telephone": "02-2821-0702",
    "lat": "25.119488",
    "lon": "121.505031"
  },
  {
    "school": "國小",
    "school_name": "明德國小",
    "postal_code": "112",
    "address": "臺北市北投區榮華里明德路190號",
    "telephone": "02-2822-9651",
    "lat": "25.1121226",
    "lon": "121.5217881"
  },
  {
    "school": "國小",
    "school_name": "文化國小",
    "postal_code": "112",
    "address": "臺北市北投區文化里文化三路1號",
    "telephone": "02-2893-3828",
    "lat": "25.137188",
    "lon": "121.496154"
  },
  {
    "school": "國小",
    "school_name": "私立復興實驗高中附小",
    "postal_code": "106",
    "address": "臺北市大安區仁愛里敦化南路1段262號",
    "telephone": "02-2771-5859",
    "lat": "25.0393604",
    "lon": "121.5483831"
  },
  {
    "school": "國小",
    "school_name": "私立立人國際國民中小學",
    "postal_code": "106",
    "address": "臺北市大安區義榮里安和路二段99號",
    "telephone": "02-2736-1388",
    "lat": "25.029802",
    "lon": "121.551908"
  },
  {
    "school": "國小",
    "school_name": "私立新民小學",
    "postal_code": "106",
    "address": "臺北市大安區龍坡里辛亥路1段113號",
    "telephone": "02-2363-0450",
    "lat": "25.022496",
    "lon": "121.532115"
  },
  {
    "school": "國小",
    "school_name": "私立光仁小學",
    "postal_code": "108",
    "address": "臺北市萬華區壽德里萬大路423巷15號",
    "telephone": "02-2303-2874",
    "lat": "25.0214164",
    "lon": "121.4995713"
  },
  {
    "school": "國小",
    "school_name": "私立靜心小學",
    "postal_code": "116",
    "address": "臺北市文山區興福里興隆路2段46號",
    "telephone": "02-2932-3118",
    "lat": "24.998895",
    "lon": "121.546825"
  },
  {
    "school": "國小",
    "school_name": "私立中山小學",
    "postal_code": "116",
    "address": "臺北市文山區木柵路1段292號",
    "telephone": "02-2936-0935",
    "lat": "24.988306",
    "lon": "121.556326"
  },
  {
    "school": "國小",
    "school_name": "私立再興小學",
    "postal_code": "116",
    "address": "臺北市文山區明義里興隆路4段2號",
    "telephone": "02-2937-1118",
    "lat": "24.990528",
    "lon": "121.558974"
  },
  {
    "school": "國小",
    "school_name": "私立華興小學",
    "postal_code": "111",
    "address": "臺北市士林區芝山里仰德大道1段101號",
    "telephone": "02-2831-6834",
    "lat": "25.104979",
    "lon": "121.538443"
  },
  {
    "school": "國小",
    "school_name": "私立薇閣小學",
    "postal_code": "112",
    "address": "臺北市北投區長安里育仁路106號",
    "telephone": "02-2891-2668",
    "lat": "25.136058",
    "lon": "121.50088"
  },
  {
    "school": "國小",
    "school_name": "私立奎山中學附小",
    "postal_code": "112",
    "address": "臺北市北投區榮華里明德路200號",
    "telephone": "02-2821-2009",
    "lat": "25.112967",
    "lon": "121.522222"
  },
  {
    "school": "國中",
    "school_name": "市立介壽國中",
    "postal_code": "105",
    "address": "臺北市松山區介壽里延壽街401號",
    "telephone": "02-2767-4496",
    "lat": "-",
    "lon": "-"
  },
  {
    "school": "國中",
    "school_name": "市立民生國中",
    "postal_code": "105",
    "address": "臺北市松山區新東里新東街30巷1號",
    "telephone": "02-2765-3433",
    "lat": "-",
    "lon": "-"
  },
  {
    "school": "國中",
    "school_name": "市立中山國中",
    "postal_code": "105",
    "address": "臺北市松山區復興北路361巷7號",
    "telephone": "02-2712-6701",
    "lat": "-",
    "lon": "-"
  },
  {
    "school": "國中",
    "school_name": "市立敦化國中",
    "postal_code": "105",
    "address": "臺北市松山區南京東路三段300號",
    "telephone": "02-8771-7890",
    "lat": "-",
    "lon": "-"
  },
  {
    "school": "國中",
    "school_name": "市立興雅國中",
    "postal_code": "110",
    "address": "臺北市信義區松德路168巷15號",
    "telephone": "02-2723-2771",
    "lat": "-",
    "lon": "-"
  },
  {
    "school": "國中",
    "school_name": "市立永吉國中",
    "postal_code": "110",
    "address": "臺北市信義區四育里8鄰松隆路161號",
    "telephone": "02-2764-9066",
    "lat": "-",
    "lon": "-"
  },
  {
    "school": "國中",
    "school_name": "市立?公國中",
    "postal_code": "110",
    "address": "臺北市信義區福德街221巷15號",
    "telephone": "02-2726-1481",
    "lat": "-",
    "lon": "-"
  },
  {
    "school": "國中",
    "school_name": "市立信義國中",
    "postal_code": "110",
    "address": "臺北市信義區松仁路158巷1號",
    "telephone": "02-2723-6771",
    "lat": "-",
    "lon": "-"
  },
  {
    "school": "國中",
    "school_name": "市立仁愛國中",
    "postal_code": "106",
    "address": "臺北市大安區敦安里仁愛路4段130號",
    "telephone": "02-2325-5823",
    "lat": "-",
    "lon": "-"
  },
  {
    "school": "國中",
    "school_name": "市立大安國中",
    "postal_code": "106",
    "address": "臺北市大安區大安路2段63號",
    "telephone": "02-2755-7131",
    "lat": "-",
    "lon": "-"
  },
  {
    "school": "國中",
    "school_name": "市立芳和國中",
    "postal_code": "106",
    "address": "臺北市大安區芳和里臥龍街170號",
    "telephone": "02-2732-1961",
    "lat": "-",
    "lon": "-"
  },
  {
    "school": "國中",
    "school_name": "市立金華國中",
    "postal_code": "106",
    "address": "臺北市大安區福住里新生南路2段32號",
    "telephone": "02-3393-1799",
    "lat": "-",
    "lon": "-"
  },
  {
    "school": "國中",
    "school_name": "市立懷生國中",
    "postal_code": "106",
    "address": "臺北市大安區忠孝東路三段248巷30號",
    "telephone": "02-2721-5078",
    "lat": "-",
    "lon": "-"
  },
  {
    "school": "國中",
    "school_name": "市立民族國中",
    "postal_code": "106",
    "address": "臺北市大安區羅斯福路4段113巷13號",
    "telephone": "02-2732-2935",
    "lat": "-",
    "lon": "-"
  },
  {
    "school": "國中",
    "school_name": "市立龍門國中",
    "postal_code": "106",
    "address": "臺北市大安區建國南路二段269號",
    "telephone": "02-2733-0299",
    "lat": "-",
    "lon": "-"
  },
  {
    "school": "國中",
    "school_name": "市立長安國中",
    "postal_code": "104",
    "address": "臺北市中山區興亞里松江路70巷11號",
    "telephone": "02-2511-2382",
    "lat": "-",
    "lon": "-"
  },
  {
    "school": "國中",
    "school_name": "市立北安國中",
    "postal_code": "104",
    "address": "臺北市中山區劍潭里明水路325號",
    "telephone": "02-2533-3888",
    "lat": "-",
    "lon": "-"
  },
  {
    "school": "國中",
    "school_name": "市立新興國中",
    "postal_code": "104",
    "address": "臺北市中山區聚葉里林森北路511號",
    "telephone": "02-2571-4211",
    "lat": "-",
    "lon": "-"
  },
  {
    "school": "國中",
    "school_name": "市立五常國中",
    "postal_code": "104",
    "address": "臺北市中山區下埤里復興北路430巷1號",
    "telephone": "02-2501-4320",
    "lat": "-",
    "lon": "-"
  },
  {
    "school": "國中",
    "school_name": "市立濱江國中",
    "postal_code": "104",
    "address": "臺北市中山區樂群二路262號",
    "telephone": "02-8502-0126",
    "lat": "-",
    "lon": "-"
  },
  {
    "school": "國中",
    "school_name": "市立螢橋國中",
    "postal_code": "100",
    "address": "臺北市中正區林興里汀州街3段4號",
    "telephone": "02-2368-8667",
    "lat": "-",
    "lon": "-"
  },
  {
    "school": "國中",
    "school_name": "市立古亭國中",
    "postal_code": "100",
    "address": "臺北市中正區中華路2段465號",
    "telephone": "02-2309-0986",
    "lat": "-",
    "lon": "-"
  },
  {
    "school": "國中",
    "school_name": "市立南門國中",
    "postal_code": "100",
    "address": "臺北市中正區南門里廣州街6號",
    "telephone": "02-2314-2775",
    "lat": "-",
    "lon": "-"
  },
  {
    "school": "國中",
    "school_name": "市立弘道國中",
    "postal_code": "100",
    "address": "臺北市中正區公園路21號",
    "telephone": "02-2371-5520",
    "lat": "-",
    "lon": "-"
  },
  {
    "school": "國中",
    "school_name": "市立中正國中",
    "postal_code": "100",
    "address": "臺北市中正區新營里愛國東路158號",
    "telephone": "02-2391-6697",
    "lat": "-",
    "lon": "-"
  },
  {
    "school": "國中",
    "school_name": "市立建成國中",
    "postal_code": "103",
    "address": "臺北市大同區長安西路37之1號",
    "telephone": "02-2558-7042",
    "lat": "-",
    "lon": "-"
  },
  {
    "school": "國中",
    "school_name": "市立忠孝國中",
    "postal_code": "103",
    "address": "臺北市大同區玉泉里西寧北路32號",
    "telephone": "02-2552-4890",
    "lat": "-",
    "lon": "-"
  },
  {
    "school": "國中",
    "school_name": "市立民權國中",
    "postal_code": "103",
    "address": "臺北市大同區重慶北路三段1號",
    "telephone": "02-2593-1951",
    "lat": "-",
    "lon": "-"
  },
  {
    "school": "國中",
    "school_name": "市立蘭州國中",
    "postal_code": "103",
    "address": "臺北市大同區至聖里大龍街187巷1號",
    "telephone": "02-2591-8269",
    "lat": "-",
    "lon": "-"
  },
  {
    "school": "國中",
    "school_name": "市立重慶國中",
    "postal_code": "103",
    "address": "臺北市大同區重慶里敦煌路19號",
    "telephone": "02-2594-8631",
    "lat": "-",
    "lon": "-"
  },
  {
    "school": "國中",
    "school_name": "市立萬華國中",
    "postal_code": "108",
    "address": "臺北市萬華區日善里西藏路201號",
    "telephone": "02-2339-4567",
    "lat": "-",
    "lon": "-"
  },
  {
    "school": "國中",
    "school_name": "市立雙園國中",
    "postal_code": "108",
    "address": "臺北市萬華區和德里興義街2號",
    "telephone": "02-2303-0827",
    "lat": "-",
    "lon": "-"
  },
  {
    "school": "國中",
    "school_name": "市立龍山國中",
    "postal_code": "108",
    "address": "臺北市萬華區富裕里南寧路46號",
    "telephone": "02-2336-2789",
    "lat": "-",
    "lon": "-"
  },
  {
    "school": "國中",
    "school_name": "市立木柵國中",
    "postal_code": "116",
    "address": "臺北市文山區木柵路3段102巷12號",
    "telephone": "02-2939-3031",
    "lat": "-",
    "lon": "-"
  },
  {
    "school": "國中",
    "school_name": "市立實踐國中",
    "postal_code": "116",
    "address": "臺北市文山區樟林里辛亥路七段67號",
    "telephone": "02-2236-2852",
    "lat": "-",
    "lon": "-"
  },
  {
    "school": "國中",
    "school_name": "市立北政國中",
    "postal_code": "116",
    "address": "臺北市文山區指南里指南路3段2巷14號",
    "telephone": "02-2939-3651",
    "lat": "-",
    "lon": "-"
  },
  {
    "school": "國中",
    "school_name": "市立景美國中",
    "postal_code": "116",
    "address": "臺北市文山區景華里景中街27號",
    "telephone": "02-9353-130",
    "lat": "-",
    "lon": "-"
  },
  {
    "school": "國中",
    "school_name": "市立興福國中",
    "postal_code": "116",
    "address": "臺北市文山區興旺里福興路80號",
    "telephone": "02-2932-2024",
    "lat": "-",
    "lon": "-"
  },
  {
    "school": "國中",
    "school_name": "市立景興國中",
    "postal_code": "116",
    "address": "臺北市文山區景華里景興路46巷2號",
    "telephone": "02-2932-3794",
    "lat": "-",
    "lon": "-"
  },
  {
    "school": "國中",
    "school_name": "市立誠正國中",
    "postal_code": "115",
    "address": "臺北市南港區新富里富康街1巷24號",
    "telephone": "02-2782-8094",
    "lat": "-",
    "lon": "-"
  },
  {
    "school": "國中",
    "school_name": "市立成德國中",
    "postal_code": "115",
    "address": "臺北市南港區成福里東新街108巷23號",
    "telephone": "02-2651-5635",
    "lat": "-",
    "lon": "-"
  },
  {
    "school": "國中",
    "school_name": "市立內湖國中",
    "postal_code": "114",
    "address": "臺北市內湖區紫陽里陽光街1號",
    "telephone": "02-2790-0843",
    "lat": "-",
    "lon": "-"
  },
  {
    "school": "國中",
    "school_name": "市立麗山國中",
    "postal_code": "114",
    "address": "臺北市內湖區內湖路1段629巷42號",
    "telephone": "02-2799-1867",
    "lat": "-",
    "lon": "-"
  },
  {
    "school": "國中",
    "school_name": "市立三民國中",
    "postal_code": "114",
    "address": "臺北市內湖區湖興里民權東路6段45號",
    "telephone": "02-2792-4772",
    "lat": "-",
    "lon": "-"
  },
  {
    "school": "國中",
    "school_name": "市立西湖國中",
    "postal_code": "114",
    "address": "臺北市內湖區西湖里環山路1段27號",
    "telephone": "02-2799-1817",
    "lat": "-",
    "lon": "-"
  },
  {
    "school": "國中",
    "school_name": "市立東湖國中",
    "postal_code": "114",
    "address": "臺北市內湖區樂康里康樂街131號",
    "telephone": "02-2633-0373",
    "lat": "-",
    "lon": "-"
  },
  {
    "school": "國中",
    "school_name": "市立明湖國中",
    "postal_code": "114",
    "address": "臺北市內湖區葫洲里康寧路3段60號",
    "telephone": "02-2632-0616",
    "lat": "-",
    "lon": "-"
  },
  {
    "school": "國中",
    "school_name": "市立士林國中",
    "postal_code": "111",
    "address": "臺北市士林區福德里中正路345號",
    "telephone": "02-8861-3411",
    "lat": "-",
    "lon": "-"
  },
  {
    "school": "國中",
    "school_name": "市立蘭雅國中",
    "postal_code": "111",
    "address": "臺北市士林區三玉里忠誠路2段51號",
    "telephone": "02-2832-9377",
    "lat": "-",
    "lon": "-"
  },
  {
    "school": "國中",
    "school_name": "市立至善國中",
    "postal_code": "111",
    "address": "臺北市士林區臨溪里至善路2段360號",
    "telephone": "02-2841-1350",
    "lat": "-",
    "lon": "-"
  },
  {
    "school": "國中",
    "school_name": "市立格致國中",
    "postal_code": "111",
    "address": "臺北市士林區陽明里仰德大道四段75號",
    "telephone": "02-2861-0079",
    "lat": "-",
    "lon": "-"
  },
  {
    "school": "國中",
    "school_name": "市立福安國中",
    "postal_code": "111",
    "address": "臺北市士林區福安里延平北路7段250號",
    "telephone": "02-2810-8766",
    "lat": "-",
    "lon": "-"
  },
  {
    "school": "國中",
    "school_name": "市立天母國中",
    "postal_code": "111",
    "address": "臺北市士林區天和里天母東路120號",
    "telephone": "02-2875-4864",
    "lat": "-",
    "lon": "-"
  },
  {
    "school": "國中",
    "school_name": "市立北投國中",
    "postal_code": "112",
    "address": "臺北市北投區溫泉里溫泉路62號",
    "telephone": "02-2891-2091",
    "lat": "-",
    "lon": "-"
  },
  {
    "school": "國中",
    "school_name": "市立新民國中",
    "postal_code": "112",
    "address": "臺北市北投區林泉里新民路10號",
    "telephone": "02-2897-9001",
    "lat": "-",
    "lon": "-"
  },
  {
    "school": "國中",
    "school_name": "市立明德國中",
    "postal_code": "112",
    "address": "臺北市北投區建民里明德路50號",
    "telephone": "02-2823-2539",
    "lat": "-",
    "lon": "-"
  },
  {
    "school": "國中",
    "school_name": "市立桃源國中",
    "postal_code": "112",
    "address": "臺北市北投區一德里中央北路4段48號",
    "telephone": "02-2892-9633",
    "lat": "-",
    "lon": "-"
  },
  {
    "school": "國中",
    "school_name": "市立石牌國中",
    "postal_code": "112",
    "address": "臺北市北投區吉利里石牌路1段139號",
    "telephone": "02-2822-4682",
    "lat": "-",
    "lon": "-"
  },
  {
    "school": "國中",
    "school_name": "市立關渡國中",
    "postal_code": "112",
    "address": "臺北市北投區關渡里知行路212號",
    "telephone": "02-2858-1770",
    "lat": "-",
    "lon": "-"
  },
  {
    "school": "國中",
    "school_name": "私立立人國際國民中小學",
    "postal_code": "106",
    "address": "臺北市大安區義榮里安和路二段99號",
    "telephone": "02-2738-1188",
    "lat": "-",
    "lon": "-"
  },
  {
    "school": "國中",
    "school_name": "私立靜心中學",
    "postal_code": "116",
    "address": "臺北市文山區興福里興隆路2段46號",
    "telephone": "02-2932-3118",
    "lat": "-",
    "lon": "-"
  },
  {
    "school": "國中",
    "school_name": "私立奎山中學",
    "postal_code": "112",
    "address": "臺北市北投區榮華里明德路200號",
    "telephone": "02-2821-2009",
    "lat": "-",
    "lon": "-"
  },
  {
    "school": "高中",
    "school_name": "國立師大附中",
    "postal_code": "106",
    "address": "臺北市大安區和安里信義路3段143號",
    "telephone": "02-2707-5215",
    "lat": "-",
    "lon": "-"
  },
  {
    "school": "高中",
    "school_name": "國立政大附中",
    "postal_code": "116",
    "address": "臺北市文山區政大一街353號",
    "telephone": "02-8237-7500",
    "lat": "-",
    "lon": "-"
  },
  {
    "school": "高中",
    "school_name": "市立西松高中",
    "postal_code": "105",
    "address": "臺北市松山區鵬程里健康路325巷7號",
    "telephone": "02-2528-6618",
    "lat": "-",
    "lon": "-"
  },
  {
    "school": "高中",
    "school_name": "市立中崙高中",
    "postal_code": "105",
    "address": "臺北市八德路四段101號",
    "telephone": "02-2753-5316",
    "lat": "-",
    "lon": "-"
  },
  {
    "school": "高中",
    "school_name": "市立松山高中",
    "postal_code": "110",
    "address": "臺北市信義區基隆路一段156號",
    "telephone": "02-2753-5968",
    "lat": "-",
    "lon": "-"
  },
  {
    "school": "高中",
    "school_name": "市立永春高中",
    "postal_code": "110",
    "address": "臺北市信義區松隆里松山路654號",
    "telephone": "02-2727-2983",
    "lat": "-",
    "lon": "-"
  },
  {
    "school": "高中",
    "school_name": "市立和平高中",
    "postal_code": "106",
    "address": "臺北市大安區芳和里臥龍街100號",
    "telephone": "02-2732-4300",
    "lat": "-",
    "lon": "-"
  },
  {
    "school": "高中",
    "school_name": "市立中山女中",
    "postal_code": "104",
    "address": "臺北市中山區力行里長安東路2段141號",
    "telephone": "02-2507-3148",
    "lat": "-",
    "lon": "-"
  },
  {
    "school": "高中",
    "school_name": "市立大同高中",
    "postal_code": "104",
    "address": "臺北市中山區中央里長春路167號",
    "telephone": "02-2505-4269",
    "lat": "-",
    "lon": "-"
  },
  {
    "school": "高中",
    "school_name": "市立大直高中",
    "postal_code": "104",
    "address": "臺北市中山區劍潭里北安路420號",
    "telephone": "02-2533-4017",
    "lat": "-",
    "lon": "-"
  },
  {
    "school": "高中",
    "school_name": "市立建國中學",
    "postal_code": "100",
    "address": "臺北市中正區龍光里南海路56號",
    "telephone": "02-2303-4381",
    "lat": "-",
    "lon": "-"
  },
  {
    "school": "高中",
    "school_name": "市立成功中學",
    "postal_code": "100",
    "address": "臺北市中正區幸福里濟南路1段71號",
    "telephone": "02-2321-6256",
    "lat": "-",
    "lon": "-"
  },
  {
    "school": "高中",
    "school_name": "市立北一女中",
    "postal_code": "100",
    "address": "臺北市中正區黎明里重慶南路1段165號",
    "telephone": "02-2382-0484",
    "lat": "-",
    "lon": "-"
  },
  {
    "school": "高中",
    "school_name": "市立明倫高中",
    "postal_code": "103",
    "address": "臺北市大同區保安里承德路3段336號",
    "telephone": "02-2596-1567",
    "lat": "-",
    "lon": "-"
  },
  {
    "school": "高中",
    "school_name": "市立成淵高中",
    "postal_code": "103",
    "address": "臺北市大同區承德路二段235號",
    "telephone": "02-2553-1969",
    "lat": "-",
    "lon": "-"
  },
  {
    "school": "高中",
    "school_name": "市立華江高中",
    "postal_code": "108",
    "address": "臺北市萬華區日善里西藏路213號",
    "telephone": "02-2301-9946",
    "lat": "-",
    "lon": "-"
  },
  {
    "school": "高中",
    "school_name": "市立大理高中",
    "postal_code": "108",
    "address": "臺北市萬華區綠堤里長順街2號",
    "telephone": "02-2302-6959",
    "lat": "-",
    "lon": "-"
  },
  {
    "school": "高中",
    "school_name": "市立景美女中",
    "postal_code": "116",
    "address": "臺北市文山區樟新里木新路3段312號",
    "telephone": "02-2936-8847",
    "lat": "-",
    "lon": "-"
  },
  {
    "school": "高中",
    "school_name": "市立萬芳高中",
    "postal_code": "116",
    "address": "臺北市文山區興隆路3段115巷1號",
    "telephone": "02-2230-9585",
    "lat": "-",
    "lon": "-"
  },
  {
    "school": "高中",
    "school_name": "市立南港高中",
    "postal_code": "115",
    "address": "臺北市南港區西新里向陽路21號",
    "telephone": "02-2783-7863",
    "lat": "-",
    "lon": "-"
  },
  {
    "school": "高中",
    "school_name": "市立育成高中",
    "postal_code": "115",
    "address": "臺北市南港區重陽路366號",
    "telephone": "02-2653-0475",
    "lat": "-",
    "lon": "-"
  },
  {
    "school": "高中",
    "school_name": "市立內湖高中",
    "postal_code": "114",
    "address": "臺北市內湖區紫陽里文德路218號",
    "telephone": "02-2797-7035",
    "lat": "-",
    "lon": "-"
  },
  {
    "school": "高中",
    "school_name": "市立麗山高中",
    "postal_code": "114",
    "address": "臺北市內湖區環山路二段100號",
    "telephone": "02-2657-0435",
    "lat": "-",
    "lon": "-"
  },
  {
    "school": "高中",
    "school_name": "市立南湖高中",
    "postal_code": "114",
    "address": "臺北市內湖區康寧路三段220號",
    "telephone": "02-2630-8889",
    "lat": "-",
    "lon": "-"
  },
  {
    "school": "高中",
    "school_name": "市立陽明高中",
    "postal_code": "111",
    "address": "臺北市士林區後港里中正路510號",
    "telephone": "02-2831-6675",
    "lat": "-",
    "lon": "-"
  },
  {
    "school": "高中",
    "school_name": "市立百齡高中",
    "postal_code": "111",
    "address": "臺北市士林區義信里承德路4段177號",
    "telephone": "02-2883-1568",
    "lat": "-",
    "lon": "-"
  },
  {
    "school": "高中",
    "school_name": "市立復興高中",
    "postal_code": "112",
    "address": "臺北市北投區復興四路70號",
    "telephone": "02-2891-4131",
    "lat": "-",
    "lon": "-"
  },
  {
    "school": "高中",
    "school_name": "市立中正高中",
    "postal_code": "112",
    "address": "臺北市北投區文林北路77號",
    "telephone": "02-2823-4811",
    "lat": "-",
    "lon": "-"
  },
  {
    "school": "高中",
    "school_name": "私立祐德中學",
    "postal_code": "110",
    "address": "臺北市信義區忠孝東路5段790巷27號",
    "telephone": "02-2727-8280",
    "lat": "-",
    "lon": "-"
  },
  {
    "school": "高中",
    "school_name": "私立延平中學",
    "postal_code": "106",
    "address": "臺北市大安區和安里建國南路1段275號",
    "telephone": "02-2707-1478",
    "lat": "-",
    "lon": "-"
  },
  {
    "school": "高中",
    "school_name": "私立金甌女中",
    "postal_code": "106",
    "address": "臺北市大安區光明里杭州南路2段1號",
    "telephone": "02-2321-4765",
    "lat": "-",
    "lon": "-"
  },
  {
    "school": "高中",
    "school_name": "私立復興實驗高中",
    "postal_code": "106",
    "address": "臺北市大安區敦化南路1段262 號",
    "telephone": "02-2771-5859",
    "lat": "-",
    "lon": "-"
  },
  {
    "school": "高中",
    "school_name": "私立中興中學",
    "postal_code": "104",
    "address": "臺北市中山區力行里朱崙街42號",
    "telephone": "02-2741-2542",
    "lat": "-",
    "lon": "-"
  },
  {
    "school": "高中",
    "school_name": "私立大同高中",
    "postal_code": "104",
    "address": "臺北市中山區聚英里中山北路3段40號",
    "telephone": "02-2592-5252",
    "lat": "-",
    "lon": "-"
  },
  {
    "school": "高中",
    "school_name": "私立強恕中學",
    "postal_code": "100",
    "address": "臺北市中正區板溪里汀州路二段143號",
    "telephone": "02-2365-6574",
    "lat": "-",
    "lon": "-"
  },
  {
    "school": "高中",
    "school_name": "私立靜修女中",
    "postal_code": "103",
    "address": "臺北市大同區雙連里寧夏路59號",
    "telephone": "02-2557-4345",
    "lat": "-",
    "lon": "-"
  },
  {
    "school": "高中",
    "school_name": "私立立人高中",
    "postal_code": "108",
    "address": "臺北市萬華區桂林路171號",
    "telephone": "02-2311-3423",
    "lat": "-",
    "lon": "-"
  },
  {
    "school": "高中",
    "school_name": "私立東山高中",
    "postal_code": "116",
    "address": "臺北市文山區老泉里老泉街26巷3號",
    "telephone": "02-2939-5826",
    "lat": "-",
    "lon": "-"
  },
  {
    "school": "高中",
    "school_name": "私立滬江高中",
    "postal_code": "116",
    "address": "臺北市文山區景美里羅斯福路6段336號",
    "telephone": "02-8663-1122",
    "lat": "-",
    "lon": "-"
  },
  {
    "school": "高中",
    "school_name": "私立大誠高中",
    "postal_code": "116",
    "address": "臺北市文山區萬興里秀明路2段175號",
    "telephone": "02-2234-8989",
    "lat": "-",
    "lon": "-"
  },
  {
    "school": "高中",
    "school_name": "私立再興中學",
    "postal_code": "116",
    "address": "臺北市文山區明義里興隆路4段2號",
    "telephone": "02-2936-6803",
    "lat": "-",
    "lon": "-"
  },
  {
    "school": "高中",
    "school_name": "私立景文高中",
    "postal_code": "116",
    "address": "臺北市文山區木新里保儀路127號",
    "telephone": "02-2939-0310",
    "lat": "-",
    "lon": "-"
  },
  {
    "school": "高中",
    "school_name": "私立文德女中",
    "postal_code": "114",
    "address": "臺北市內湖區紫陽里成功路3段70號",
    "telephone": "02-2790-4570",
    "lat": "-",
    "lon": "-"
  },
  {
    "school": "高中",
    "school_name": "私立方濟中學",
    "postal_code": "114",
    "address": "臺北市內湖區紫星里成功路三段61號",
    "telephone": "02-2791-0278",
    "lat": "-",
    "lon": "-"
  },
  {
    "school": "高中",
    "school_name": "私立達人女中",
    "postal_code": "114",
    "address": "臺北市內湖區湖濱里內湖路2段314號",
    "telephone": "02-2795-6899",
    "lat": "-",
    "lon": "-"
  },
  {
    "school": "高中",
    "school_name": "私立泰北高中",
    "postal_code": "111",
    "address": "臺北市士林區福林里福林路240號",
    "telephone": "02-2882-5560",
    "lat": "-",
    "lon": "-"
  },
  {
    "school": "高中",
    "school_name": "私立衛理女中",
    "postal_code": "111",
    "address": "臺北市士林區翠山里至善路2段321號",
    "telephone": "02-2841-1487",
    "lat": "-",
    "lon": "-"
  },
  {
    "school": "高中",
    "school_name": "私立華興中學",
    "postal_code": "111",
    "address": "臺北市士林區芝山里仰德大道1段101號",
    "telephone": "02-2831-6834",
    "lat": "-",
    "lon": "-"
  },
  {
    "school": "高中",
    "school_name": "私立薇閣高中",
    "postal_code": "112",
    "address": "臺北市北投區中心里珠海路50號",
    "telephone": "02-2892-5332",
    "lat": "-",
    "lon": "-"
  },
  {
    "school": "高中",
    "school_name": "私立十信高中",
    "postal_code": "112",
    "address": "臺北市北投區北投路二段55號",
    "telephone": "02-2892-1166",
    "lat": "-",
    "lon": "-"
  },
  {
    "school": "高職",
    "school_name": "市立松山家商",
    "postal_code": "110",
    "address": "臺北市信義區松山路655號",
    "telephone": "02-2726-1118",
    "lat": "-",
    "lon": "-"
  },
  {
    "school": "高職",
    "school_name": "市立松山工農",
    "postal_code": "110",
    "address": "臺北市信義區忠孝東路5段236巷15號",
    "telephone": "02-2722-6616",
    "lat": "-",
    "lon": "-"
  },
  {
    "school": "高職",
    "school_name": "市立大安高工",
    "postal_code": "106",
    "address": "臺北市大安區龍圖里復興南路2段52號",
    "telephone": "02-2709-1630",
    "lat": "-",
    "lon": "-"
  },
  {
    "school": "高職",
    "school_name": "市立木柵高工",
    "postal_code": "116",
    "address": "臺北市文山區萬芳里木柵路4段77號",
    "telephone": "02-2230-0506",
    "lat": "-",
    "lon": "-"
  },
  {
    "school": "高職",
    "school_name": "市立南港高工",
    "postal_code": "115",
    "address": "臺北市南港區南港里興中路29號",
    "telephone": "02-2782-5432",
    "lat": "-",
    "lon": "-"
  },
  {
    "school": "高職",
    "school_name": "市立內湖高工",
    "postal_code": "114",
    "address": "臺北市內湖區港墘里內湖路1段520號",
    "telephone": "02-2657-4874",
    "lat": "-",
    "lon": "-"
  },
  {
    "school": "高職",
    "school_name": "市立士林高商",
    "postal_code": "111",
    "address": "臺北市士林區後港里士商路150號",
    "telephone": "02-2831-3114",
    "lat": "-",
    "lon": "-"
  },
  {
    "school": "高職",
    "school_name": "私立育達家商",
    "postal_code": "105",
    "address": "臺北市松山區美仁里寧安街12號",
    "telephone": "02-2570-6767",
    "lat": "-",
    "lon": "-"
  },
  {
    "school": "高職",
    "school_name": "私立協和工商",
    "postal_code": "110",
    "address": "臺北市信義區忠孝東路5段790巷27號",
    "telephone": "02-2726-5775",
    "lat": "-",
    "lon": "-"
  },
  {
    "school": "高職",
    "school_name": "私立東方工商",
    "postal_code": "106",
    "address": "臺北市大安區信義路四段186巷8號",
    "telephone": "02-2755-4616",
    "lat": "-",
    "lon": "-"
  },
  {
    "school": "高職",
    "school_name": "私立喬治工商",
    "postal_code": "106",
    "address": "臺北市大安區基隆路2段172號",
    "telephone": "02-2738-6515",
    "lat": "-",
    "lon": "-"
  },
  {
    "school": "高職",
    "school_name": "私立開平餐飲",
    "postal_code": "106",
    "address": "臺北市大安區復興南路2段148巷24號",
    "telephone": "02-2755-6939",
    "lat": "-",
    "lon": "-"
  },
  {
    "school": "高職",
    "school_name": "私立稻江護家",
    "postal_code": "104",
    "address": "臺北市中山區新生北路三段55號",
    "telephone": "02-2595-5161",
    "lat": "-",
    "lon": "-"
  },
  {
    "school": "高職",
    "school_name": "私立開南商工",
    "postal_code": "100",
    "address": "臺北市中正區東門里濟南路1段6號",
    "telephone": "02-2321-2666",
    "lat": "-",
    "lon": "-"
  },
  {
    "school": "高職",
    "school_name": "私立稻江高商",
    "postal_code": "103",
    "address": "臺北市大同區國昌里民權西路225巷24號",
    "telephone": "02-2591-2001",
    "lat": "-",
    "lon": "-"
  },
  {
    "school": "高職",
    "school_name": "私立華岡藝校",
    "postal_code": "111",
    "address": "臺北市士林區建業路73巷8號",
    "telephone": "02-2861-2354",
    "lat": "-",
    "lon": "-"
  },
  {
    "school": "高職",
    "school_name": "私立惇敘工商",
    "postal_code": "112",
    "address": "臺北市北投區泉源路221號",
    "telephone": "02-2891-2630",
    "lat": "-",
    "lon": "-"
  },
  {
    "school": "特教學校",
    "school_name": "臺北市 市立啟聰學校",
    "postal_code": "103",
    "address": "臺北市大同區重慶北路三段320號",
    "telephone": "02-2592-4446",
    "lat": "-",
    "lon": "-"
  },
  {
    "school": "特教學校",
    "school_name": "臺北市 市立啟智學校",
    "postal_code": "111",
    "address": "臺北市士林區忠誠路二段207巷3號",
    "telephone": "02-2874-9117",
    "lat": "-",
    "lon": "-"
  },
  {
    "school": "特教學校",
    "school_name": "臺北市 市立啟明學校",
    "postal_code": "111",
    "address": "臺北市士林區忠誠路二段207巷1號",
    "telephone": "02-2874-0670",
    "lat": "-",
    "lon": "-"
  },
  {
    "school": "特教學校",
    "school_name": "臺北市 市立文山特殊教育學校",
    "postal_code": "116",
    "address": "臺北市文山區秀明路一段169號",
    "telephone": "02-8661-5183",
    "lat": "-",
    "lon": "-"
  },
  {
    "school": "市立大專校院",
    "school_name": "臺北市立大學（博愛校區）",
    "postal_code": "100",
    "address": "臺北市中正區愛國西路1號",
    "telephone": "02-2311-3040",
    "lat": "-",
    "lon": "-"
  },
  {
    "school": "市立大專校院",
    "school_name": "臺北市立大學（天母校區）",
    "postal_code": "111",
    "address": "臺北市士林區忠誠路二段101號",
    "telephone": "02-2871-8288",
    "lat": "-",
    "lon": "-"
  }
]